28054,DMSP 5D-3 F16 (USA 172),2003,101.84,1154.0,B,99.02,Active,1,LEO,USA,USA,Military,Earth Observation,Titan,1 28054U 03048A   24029.48507948  .00000266  00000+0  16399-3 0  9990,2 28054  99.0209  34.6488 0008251  88.8389  64.6009 14.13938943 46531,14.13938943,0.0008251,LEO
28058,CHUANGXIN 1 (CX-1),2003,99.48,100.0,+,98.61,Active,1,LEO,PRC,China,Government,Communications,Long March,1 28058U 03049B   24029.14923434  .00000468  00000+0  13946-3 0  9999,2 28058  98.6140 266.5884 0011777 301.6621  58.3422 14.47580254 70364,14.47580254,0.0011777,LEO
28089,YAMAL 202,2003,1436.1,1320.0,+,4.13,Active,1,GSO,Kazakhstan,Russia/USSR,Commercial,Communications,Proton,1 28089U 03053A   24028.87235486 -.00000074  00000+0  00000+0 0  9997,2 28089   4.1305  81.3880 0004235 209.4230 314.3112  1.00271761 73958,1.00271761,0.0004235,GSO
28117,UFO 11 (USA 174),2003,1436.09,3200.0,+,7.85,Active,1,GSO,USA,USA,Military,Communications,Atlas,1 28117U 03057A   24028.56836051 -.00000095  00000+0  00000+0 0  9997,2 28117   7.8471  37.1124 0002320 272.1742  97.9004  1.00272587 73728,1.00272587,0.000232,GSO
28129,NAVSTAR 53 (USA 175),2003,717.96,-1.0,B,54.38,Active,0,MEO,USA,USA,Unknown,Unknown,Unknown,1 28129U 03058A   24028.37026304 -.00000051  00000+0  00000+0 0  9994,2 28129  54.3862  57.1313 0068439 333.4870  26.2245  2.00567618147323,2.00567618,0.0068439,MEO
28158,USA 176 (DSP 22),2004,1436.02,2380.0,+,10.87,Active,1,GSO,USA,USA,Military,Earth Observation,Titan,1 28158U 04004A   24029.50376227 -.00000211  00000+0  00000+0 0  9994,2 28158  10.8717  31.8754 0001390 287.7608  77.2571  1.00276383 22899,1.00276383,0.000139,GSO
28184,ABS-4 (MOBISAT-1),2004,1436.13,4143.0,+,3.82,Active,1,GSO,USA,ABS,Commercial,Communications,Atlas,1 28184U 04007A   24029.13845466  .00000048  00000+0  00000+0 0  9998,2 28184   3.8233  82.4861 0006521 227.1745 289.0113  1.00270059 72855,1.00270059,0.0006521,GSO
28187,EUTELSAT 7A,2004,1436.08,4300.0,+,3.6,Active,1,GSO,Kazakhstan,EUTELSAT,Commercial,Communications,Proton,1 28187U 04008A   24028.74051542  .00000110  00000+0  00000+0 0  9992,2 28187   3.6067  82.2123 0003141 242.1712 290.4569  1.00273162 72620,1.00273162,0.0003141,GSO
28190,NAVSTAR 54 (USA 177),2004,717.98,2217.0,+,55.57,Active,1,MEO,USA,USA,Commercial/Military,Navigation (Global or Regional Positioning),Delta,1 28190U 04009A   24028.10069425 -.00000064  00000+0  00000+0 0  9995,2 28190  55.5723 310.6686 0092889 142.8234  24.8479  2.00562924145474,2.00562924,0.0092889,MEO
28220,SHIYAN 1 (SY-1),2004,95.43,204.0,+,97.98,Active,1,LEO,PRC,China,Government,Earth Observation,Long March,1 28220U 04012A   24028.93043123  .00007390  00000+0  47164-3 0  9995,2 28220  97.9794  50.9716 0010851 139.8549 220.3482 15.08952676 78828,15.08952676,0.0010851,LEO
28252,AMC-11 (GE-11),2004,1436.09,2340.0,+,0.05,Active,1,GSO,USA,SES,Commercial,Communications,Atlas,1 28252U 04017A   24029.47062425 -.00000040  00000+0  00000+0 0  9991,2 28252   0.0417 278.9625 0002705  17.3976 250.1524  1.00272863 71982,1.00272863,0.0002705,GEO
28358,INTELSAT 10-02,2004,1436.15,5576.0,+,0.02,Active,1,GSO,Kazakhstan,INTELSAT,Commercial,Communications,Proton,1 28358U 04022A   24028.92619139 -.00000003  00000+0  00000+0 0  9992,2 28358   0.0179 266.9541 0000638  78.6688 114.5036  1.00270503 71824,1.00270503,6.38e-05,GEO
28361,NAVSTAR 55 (USA 178),2004,717.97,-1.0,B,54.36,Active,0,MEO,USA,USA,Unknown,Unknown,Unknown,1 28361U 04023A   24029.11748218  .00000000  00000+0  00000+0 0  9996,2 28361  54.3602 121.9455 0149686 276.3471  79.1524  2.00564764143609,2.00564764,0.0149686,MEO
28366,APRIZESAT 2,2004,100.2,12.0,+,98.09,Active,1,LEO,Kazakhstan,USA,Commercial,Communications/Technology Development,Dnepr,1 28366U 04025A   24029.52356545  .00000314  00000+0  11219-3 0  9992,2 28366  98.0916 235.9943 0106932 355.8651   4.1643 14.37178235 26691,14.37178235,0.0106932,LEO
28369,SAUDICOMSAT 1,2004,99.06,12.0,+,98.52,Active,1,LEO,Kazakhstan,Saudi Arabia,Commercial,Technology Development,Dnepr,1 28369U 04025D   24028.93725602  .00000777  00000+0  19578-3 0  9992,2 28369  98.5220   7.4674 0033237 165.7501 194.4640 14.53679386 37669,14.53679386,0.0033237,LEO
28370,SAUDICOMSAT 2,2004,99.42,12.0,+,98.61,Active,1,LEO,Kazakhstan,Saudi Arabia,Commercial,Technology Development,Dnepr,1 28370U 04025E   24029.48187285  .00000938  00000+0  25793-3 0  9999,2 28370  98.6143   8.5077 0057181  13.6269 346.6451 14.48462476 34180,14.48462476,0.0057181,LEO
28371,SAUDISAT 2,2004,98.95,35.0,+,98.47,Active,1,LEO,Kazakhstan,Saudi Arabia,Government,Earth Observation,Dnepr,1 28371U 04025F   24029.48438758  .00000721  00000+0  17681-3 0  9991,2 28371  98.4655   0.5665 0026507  88.4224 272.0009 14.55252164 39221,14.55252164,0.0026507,LEO
