[{"OBJECT_NAME":"DMSP 5D-3 F16 (USA 172)","OBJECT_ID":"2003-048A","EPOCH":"2024-01-29T11:38:30.867072","MEAN_MOTION":14.13938943,"ECCENTRICITY":0.0008251,"INCLINATION":99.0209,"RA_OF_ASC_NODE":34.6488,"ARG_OF_PERICENTER":88.8389,"MEAN_ANOMALY":64.6009,"EPHEMERIS_TYPE":0,"CLASSIFICATION_TYPE":"U","NORAD_CAT_ID":28054,"ELEMENT_SET_NO":999,"REV_AT_EPOCH":4653,"BSTAR":0.00016399,"MEAN_MOTION_DOT":2.66e-6,"MEAN_MOTION_DDOT":0},{"OBJECT_NAME":"CHUANGXIN 1 (CX-1)","OBJECT_ID":"2003-049B","EPOCH":"2024-01-29T03:34:53.846976","MEAN_MOTION":14.47580254,"ECCENTRICITY":0.0011777,"INCLINATION":98.614,"RA_OF_ASC_NODE":266.5884,"ARG_OF_PERICENTER":301.6621,"MEAN_ANOMALY":58.3422,"EPHEMERIS_TYPE":0,"CLASSIFICATION_TYPE":"U","NORAD_CAT_ID":28058,"ELEMENT_SET_NO":999,"REV_AT_EPOCH":7036,"BSTAR":0.00013946,"MEAN_MOTION_DOT":4.68e-6,"MEAN_MOTION_DDOT":0},{"OBJECT_NAME":"YAMAL 202","OBJECT_ID":"2003-053A","EPOCH":"2024-01-28T20:56:11.459904","MEAN_MOTION":1.00271761,"ECCENTRICITY":0.0004235,"INCLINATION":4.1305,"RA_OF_ASC_NODE":81.388,"ARG_OF_PERICENTER":209.423,"MEAN_ANOMALY":314.3112,"EPHEMERIS_TYPE":0,"CLASSIFICATION_TYPE":"U","NORAD_CAT_ID":28089,"ELEMENT_SET_NO":999,"REV_AT_EPOCH":7395,"BSTAR":0,"MEAN_MOTION_DOT":-7.4e-7,"MEAN_MOTION_DDOT":0},{"OBJECT_NAME":"UFO 11 (USA 174)","OBJECT_ID":"2003-057A","EPOCH":"2024-01-28T13:38:26.348064","MEAN_MOTION":1.00272587,"ECCENTRICITY":0.000232,"INCLINATION":7.8471,"RA_OF_ASC_NODE":37.1124,"ARG_OF_PERICENTER":272.1742,"MEAN_ANOMALY":97.9004,"EPHEMERIS_TYPE":0,"CLASSIFICATION_TYPE":"U","NORAD_CAT_ID":28117,"ELEMENT_SET_NO":999,"REV_AT_EPOCH":7372,"BSTAR":0,"MEAN_MOTION_DOT":-9.5e-7,"MEAN_MOTION_DDOT":0},{"OBJECT_NAME":"NAVSTAR 53 (USA 175)","OBJECT_ID":"2003-058A","EPOCH":"2024-01-28T08:53:10.726656","MEAN_MOTION":2.00567618,"ECCENTRICITY":0.0068439,"INCLINATION":54.3862,"RA_OF_ASC_NODE":57.1313,"ARG_OF_PERICENTER":333.487,"MEAN_ANOMALY":26.2245,"EPHEMERIS_TYPE":0,"CLASSIFICATION_TYPE":"U","NORAD_CAT_ID":28129,"ELEMENT_SET_NO":999,"REV_AT_EPOCH":14732,"BSTAR":0,"MEAN_MOTION_DOT":-5.1e-7,"MEAN_MOTION_DDOT":0},{"OBJECT_NAME":"USA 176 (DSP 22)","OBJECT_ID":"2004-004A","EPOCH":"2024-01-29T12:05:25.060128","MEAN_MOTION":1.00276383,"ECCENTRICITY":0.000139,"INCLINATION":10.8717,"RA_OF_ASC_NODE":31.8754,"ARG_OF_PERICENTER":287.7608,"MEAN_ANOMALY":77.2571,"EPHEMERIS_TYPE":0,"CLASSIFICATION_TYPE":"U","NORAD_CAT_ID":28158,"ELEMENT_SET_NO":999,"REV_AT_EPOCH":2289,"BSTAR":0,"MEAN_MOTION_DOT":-2.11e-6,"MEAN_MOTION_DDOT":0},{"OBJECT_NAME":"ABS-4 (MOBISAT-1)","OBJECT_ID":"2004-007A","EPOCH":"2024-01-29T03:19:22.482624","MEAN_MOTION":1.00270059,"ECCENTRICITY":0.0006521,"INCLINATION":3.8233,"RA_OF_ASC_NODE":82.4861,"ARG_OF_PERICENTER":227.1745,"MEAN_ANOMALY":289.0113,"EPHEMERIS_TYPE":0,"CLASSIFICATION_TYPE":"U","NORAD_CAT_ID":28184,"ELEMENT_SET_NO":999,"REV_AT_EPOCH":7285,"BSTAR":0,"MEAN_MOTION_DOT":4.8e-7,"MEAN_MOTION_DDOT":0},{"OBJECT_NAME":"EUTELSAT 7A","OBJECT_ID":"2004-008A","EPOCH":"2024-01-28T17:46:20.532288","MEAN_MOTION":1.00273162,"ECCENTRICITY":0.0003141,"INCLINATION":3.6067,"RA_OF_ASC_NODE":82.2123,"ARG_OF_PERICENTER":242.1712,"MEAN_ANOMALY":290.4569,"EPHEMERIS_TYPE":0,"CLASSIFICATION_TYPE":"U","NORAD_CAT_ID":28187,"ELEMENT_SET_NO":999,"REV_AT_EPOCH":7262,"BSTAR":0,"MEAN_MOTION_DOT":1.1e-6,"MEAN_MOTION_DDOT":0},{"OBJECT_NAME":"NAVSTAR 54 (USA 177)","OBJECT_ID":"2004-009A","EPOCH":"2024-01-28T02:24:59.983200","MEAN_MOTION":2.00562924,"ECCENTRICITY":0.0092889,"INCLINATION":55.5723,"RA_OF_ASC_NODE":310.6686,"ARG_OF_PERICENTER":142.8234,"MEAN_ANOMALY":24.8479,"EPHEMERIS_TYPE":0,"CLASSIFICATION_TYPE":"U","NORAD_CAT_ID":28190,"ELEMENT_SET_NO":999,"REV_AT_EPOCH":14547,"BSTAR":0,"MEAN_MOTION_DOT":-6.4e-7,"MEAN_MOTION_DDOT":0},{"OBJECT_NAME":"SHIYAN 1 (SY-1)","OBJECT_ID":"2004-012A","EPOCH":"2024-01-28T22:19:49.258272","MEAN_MOTION":15.08952676,"ECCENTRICITY":0.0010851,"INCLINATION":97.9794,"RA_OF_ASC_NODE":50.9716,"ARG_OF_PERICENTER":139.8549,"MEAN_ANOMALY":220.3482,"EPHEMERIS_TYPE":0,"CLASSIFICATION_TYPE":"U","NORAD_CAT_ID":28220,"ELEMENT_SET_NO":999,"REV_AT_EPOCH":7882,"BSTAR":0.00047164,"MEAN_MOTION_DOT":7.39e-5,"MEAN_MOTION_DDOT":0},{"OBJECT_NAME":"AMC-11 (GE-11)","OBJECT_ID":"2004-017A","EPOCH":"2024-01-29T11:17:41.935200","MEAN_MOTION":1.00272863,"ECCENTRICITY":0.0002705,"INCLINATION":0.0417,"RA_OF_ASC_NODE":278.9625,"ARG_OF_PERICENTER":17.3976,"MEAN_ANOMALY":250.1524,"EPHEMERIS_TYPE":0,"CLASSIFICATION_TYPE":"U","NORAD_CAT_ID":28252,"ELEMENT_SET_NO":999,"REV_AT_EPOCH":7198,"BSTAR":0,"MEAN_MOTION_DOT":-4.0e-7,"MEAN_MOTION_DDOT":0},{"OBJECT_NAME":"INTELSAT 10-02","OBJECT_ID":"2004-022A","EPOCH":"2024-01-28T22:13:42.936096","MEAN_MOTION":1.00270503,"ECCENTRICITY":6.38e-5,"INCLINATION":0.0179,"RA_OF_ASC_NODE":266.9541,"ARG_OF_PERICENTER":78.6688,"MEAN_ANOMALY":114.5036,"EPHEMERIS_TYPE":0,"CLASSIFICATION_TYPE":"U","NORAD_CAT_ID":28358,"ELEMENT_SET_NO":999,"REV_AT_EPOCH":7182,"BSTAR":0,"MEAN_MOTION_DOT":-3.0e-8,"MEAN_MOTION_DDOT":0},{"OBJECT_NAME":"NAVSTAR 55 (USA 178)","OBJECT_ID":"2004-023A","EPOCH":"2024-01-29T02:49:10.460352","MEAN_MOTION":2.00564764,"ECCENTRICITY":0.0149686,"INCLINATION":54.3602,"RA_OF_ASC_NODE":121.9455,"ARG_OF_PERICENTER":276.3471,"MEAN_ANOMALY":79.1524,"EPHEMERIS_TYPE":0,"CLASSIFICATION_TYPE":"U","NORAD_CAT_ID":28361,"ELEMENT_SET_NO":999,"REV_AT_EPOCH":14360,"BSTAR":0,"MEAN_MOTION_DOT":0,"MEAN_MOTION_DDOT":0},{"OBJECT_NAME":"APRIZESAT 2","OBJECT_ID":"2004-025A","EPOCH":"2024-01-29T12:33:56.054880","MEAN_MOTION":14.37178235,"ECCENTRICITY":0.0106932,"INCLINATION":98.0916,"RA_OF_ASC_NODE":235.9943,"ARG_OF_PERICENTER":355.8651,"MEAN_ANOMALY":4.1643,"EPHEMERIS_TYPE":0,"CLASSIFICATION_TYPE":"U","NORAD_CAT_ID":28366,"ELEMENT_SET_NO":999,"REV_AT_EPOCH":2669,"BSTAR":0.00011219,"MEAN_MOTION_DOT":3.14e-6,"MEAN_MOTION_DDOT":0},{"OBJECT_NAME":"SAUDICOMSAT 1","OBJECT_ID":"2004-025D","EPOCH":"2024-01-28T22:29:38.920128","MEAN_MOTION":14.53679386,"ECCENTRICITY":0.0033237,"INCLINATION":98.522,"RA_OF_ASC_NODE":7.4674,"ARG_OF_PERICENTER":165.7501,"MEAN_ANOMALY":194.464,"EPHEMERIS_TYPE":0,"CLASSIFICATION_TYPE":"U","NORAD_CAT_ID":28369,"ELEMENT_SET_NO":999,"REV_AT_EPOCH":3766,"BSTAR":0.00019578,"MEAN_MOTION_DOT":7.77e-6,"MEAN_MOTION_DDOT":0},{"OBJECT_NAME":"SAUDICOMSAT 2","OBJECT_ID":"2004-025E","EPOCH":"2024-01-29T11:33:53.814240","MEAN_MOTION":14.48462476,"ECCENTRICITY":0.0057181,"INCLINATION":98.6143,"RA_OF_ASC_NODE":8.5077,"ARG_OF_PERICENTER":13.6269,"MEAN_ANOMALY":346.6451,"EPHEMERIS_TYPE":0,"CLASSIFICATION_TYPE":"U","NORAD_CAT_ID":28370,"ELEMENT_SET_NO":999,"REV_AT_EPOCH":3418,"BSTAR":0.00025793,"MEAN_MOTION_DOT":9.38e-6,"MEAN_MOTION_DDOT":0},{"OBJECT_NAME":"SAUDISAT 2","OBJECT_ID":"2004-025F","EPOCH":"2024-01-29T11:37:31.086912","MEAN_MOTION":14.55252164,"ECCENTRICITY":0.0026507,"INCLINATION":98.4655,"RA_OF_ASC_NODE":0.5665,"ARG_OF_PERICENTER":88.4224,"MEAN_ANOMALY":272.0009,"EPHEMERIS_TYPE":0,"CLASSIFICATION_TYPE":"U","NORAD_CAT_ID":28371,"ELEMENT_SET_NO":999,"REV_AT_EPOCH":3922,"BSTAR":0.00017681,"MEAN_MOTION_DOT":7.21e-6,"MEAN_MOTION_DDOT":0}]
